{"fetched_at":"2026-03-30T06:02:59Z","count":15439,"tles":[{"name":"STARLINK-36488","line1":"1 67306U 26002B   26087.70424093  .00033324  00000+0  12137-2 0  9994","line2":"2 67306  42.9988 218.1693 0001487 264.1439  95.9243 15.27615508 13986","category":"Starlink"}]}